[{"OBJECT_NAME":"ION SCV-013","OBJECT_ID":"2023-174AW","EPOCH":"2026-03-09T22:59:29.755392","MEAN_MOTION":15.04632564,"ECCENTRICITY":0.00998876,"INCLINATION":97.6297,"RA_OF_ASC_NODE":125.3193,"ARG_OF_PERICENTER":172.5348,"MEAN_ANOMALY":187.7394,"EPHEMERIS_TYPE":0,"CLASSIFICATION_TYPE":"U","NORAD_CAT_ID":58300,"ELEMENT_SET_NO":999,"REV_AT_EPOCH":12661,"BSTAR":0.00023880169,"MEAN_MOTION_DOT":3.68e-5,"MEAN_MOTION_DDOT":0},{"OBJECT_NAME":"STARLINK-35853","OBJECT_ID":"2025-303Q","EPOCH":"2026-03-08T16:54:01.047456","MEAN_MOTION":15.27576586,"ECCENTRICITY":0.00012497,"INCLINATION":42.9964,"RA_OF_ASC_NODE":316.3452,"ARG_OF_PERICENTER":280.8737,"MEAN_ANOMALY":79.1974,"EPHEMERIS_TYPE":0,"CLASSIFICATION_TYPE":"U","NORAD_CAT_ID":67177,"ELEMENT_SET_NO":999,"REV_AT_EPOCH":1258,"BSTAR":0.00053714083,"MEAN_MOTION_DOT":0.00014547,"MEAN_MOTION_DDOT":0}]
